SAUDISAT 1C (SO-50)     
1 27607U 02058C   26198.16208639  .00000356  00000+0  60036-4 0  9990
2 27607  64.5519  36.2392 0074468 256.9149 102.3638 14.83100454268902
SAUDISAT 2              
1 28371U 04025F   26198.25210931  .00000089  00000+0  31015-4 0  9991
2 28371  98.5522 199.0128 0024182 201.7292 158.2882 14.56698857170128
SAUDISAT 3              
1 31118U 07012B   26198.31550490  .00000097  00000+0  23903-4 0  9993
2 31118  98.1468 148.7385 0015705 128.4198 231.8421 14.71440920 32175
PISAT                   
1 41784U 16059B   26197.97814707  .00000428  00000+0  80498-4 0  9999
2 41784  97.8192 197.1528 0030496 109.3961 251.0545 14.69031411524111
FLYING LAPTOP           
1 42831U 17042G   26198.31286390  .00001804  00000+0  14415-3 0  9990
2 42831  97.4816 352.7137 0019597  25.7451 334.4745 15.01320786490970
SALSAT                  
1 46495U 20068K   26197.96833821  .00003909  00000+0  13663-3 0  9991
2 46495  97.8858 202.8562 0009384 186.4299 173.6821 15.30186484319914
